#aV2023  7  8  0  0  0.00000000     288 DD+AD WGS84 FIT  NGA
## 2269 518400.00000000   300.00000000 60133 0.0000000000000
+   32     1  2  3  4  5  6  7  8  9 10 11 12 13 14 15 16 17
+         18 19 20 21 22 23 24 25 26 27 28 29 30 31 32  0  0
+          0  0  0  0  0  0  0  0  0  0  0  0  0  0  0  0  0
+          0  0  0  0  0  0  0  0  0  0  0  0  0  0  0  0  0
+          0  0  0  0  0  0  0  0  0  0  0  0  0  0  0  0  0
++         2  2  2  2  2  2  2  2  2  2  2  2  2  2  2  2  2
++         2  2  2  2  2  2  2  2  2  2  2  2  2  2  2  0  0
++         0  0  0  0  0  0  0  0  0  0  0  0  0  0  0  0  0
++         0  0  0  0  0  0  0  0  0  0  0  0  0  0  0  0  0
++         0  0  0  0  0  0  0  0  0  0  0  0  0  0  0  0  0
%c cc cc ccc ccc cccc cccc cccc cccc ccccc ccccc ccccc ccccc
%c cc cc ccc ccc cccc cccc cccc cccc ccccc ccccc ccccc ccccc
%f  0.0000000  0.000000000  0.00000000000  0.000000000000000
%f  0.0000000  0.000000000  0.00000000000  0.000000000000000
%i    0    0    0    0      0      0      0      0         0
%i    0    0    0    0      0      0      0      0         0
/*      NGA, ST. LOUIS,MO.                                  
/*   EPHEMERIS COMPUTED FROM 2 DAYS OF DATA                 
/*   EPOCHA v8 SMOOTHER                                     
/*   G2139 IERS2010 SATIGS SATAPC                           
*  2023  7  8 17 45  0.00000000
P  1  11349.432701  13537.162515 -20286.646578    173.908825                    
V  1 -24828.003635     80.086299 -13742.731948     -0.019807                    
P  2   4844.833791  14355.308642 -21325.318685   -578.171276                    
V  2 -28127.878318   2607.057008  -4383.354065      0.037940                    
P  3  12763.997973  23356.088024   -832.997403   -240.623776                    
V  3  -2271.429864    286.359714 -32068.426203      0.151714                    
P  4   4998.378403  17421.872823  19385.953790     90.101062                    
V  4 -14176.240275  20175.466967 -14597.809652      0.107536                    
P  5  -1665.721019 -21735.113730  14916.472111   -134.124576                    
V  5  12104.969449  15159.707093  23269.803594     -0.014589                    
P  6  24425.103478  -5640.884284   8980.601095    579.677212                    
V  6  11241.564244   1787.597110 -29551.598614     -0.032084                    
P  7  24096.701259   7095.728675   9811.873843    130.780036                    
V  7 -11667.687876   2303.478315  27870.917858     -0.107131                    
P  8  -3725.372885  23564.461879 -11320.156019   -131.190454                    
V  8  -9284.301793  11358.098370  27259.149322     -0.018339                    
P  9  12863.910674   8274.944654  21636.623617   -117.080939                    
V  9 -13441.902531  24186.530653  -1296.180535      0.092164                    
P 10 -16548.364627   -927.303676 -20650.951833    -44.364454                    
V 10 -12696.196840 -23264.135598  10818.112293     -0.015666                    
P 11  12623.926572 -12866.846049  19499.054702   -267.603204                    
V 11  24650.170418   2491.668737 -14360.918775     -0.159642                    
P 12  -8914.347854 -24775.244548  -4064.833838   -398.257557                    
V 12   4391.855190   3209.154264 -31246.554076     -0.046343                    
P 13  12450.192764 -22601.662360  -5984.891132    544.482764                    
V 13   6586.424742  -4246.993141  30877.827593      0.049808                    
P 14  17880.510155   4153.171178 -19233.457463    115.936499                    
V 14  10330.052808  22202.893379  14225.284769      0.121019                    
P 15     -9.085858 -23793.709842 -12002.400624     56.154216                    
V 15   8389.099605 -12453.706339  25941.665201      0.035528                    
P 16  -4151.343806  19350.711919  17183.191148   -483.050513                    
V 16 -11306.523924 -19653.293922  19503.610164      0.042935                    
P 17  18925.549221  -8711.099717 -16102.849438    720.515139                    
V 17 -10319.638936  18580.410688 -21504.093160      0.008700                    
P 18 -25287.263483  -5056.717688   6710.148226   -337.977981                    
V 18   8513.205652  -1993.532697  30409.200526     -0.143918                    
P 19  19571.463031 -14020.111240 -11064.281976    341.184681                    
V 19  -6301.764442  12508.213536 -27848.374910      0.051253                    
P 20   5944.671274 -15873.504847  20523.476564    423.757259                    
V 20  17267.522699  19434.500961   9859.925025     -0.020589                    
P 21   2244.278044  14801.625323 -21413.282113    152.369951                    
V 21 -28393.368991   2148.093012   -599.396544     -0.004095                    
P 22 -18351.960688  17411.901260  -7366.457535    509.815022                    
V 22   3405.872203  -9814.271649 -30009.119662      0.056084                    
P 23 -18841.597820 -12888.420523 -13707.857692     41.123853                    
V 23  -7578.346414 -15676.693280  24991.146804      0.040424                    
P 24  -7133.174345 -15056.809668 -21111.237741   -251.267052                    
V 24  25867.945969  -2826.583300  -6420.896985     -0.124863                    
P 25 -17164.825896 -19059.333415   7092.000539    454.858491                    
V 25  -2410.321403  -9457.481070 -29667.977440      0.023828                    
P 26 -12110.469131  10142.657581  21218.645286    237.045669                    
V 26 -15585.397919 -22472.876379   2178.683783     -0.010850                    
P 27 -12509.400248  23162.512041   -962.372936      0.939844                    
V 27  -3035.854270   -664.596866  32138.013963     -0.077092                    
P 28 -25040.849137   5610.973670   6825.337110     83.124319                    
V 28  -8779.183790  -2383.234589 -30162.198082     -0.009220                    
P 29 -10745.510597 -10471.673177  21858.075249   -605.022350                    
V 29  15957.512579 -22813.831445  -3172.626951     -0.009735                    
P 30  26703.461265    360.406339    172.352225   -505.709847                    
V 30   -108.278635   3398.549523  31002.185421      0.027002                    
P 31 -18268.394402  10905.540071  15981.048640   -219.688065                    
V 31 -20420.766569  -2314.008868 -21110.152947     -0.006881                    
P 32 -18493.807552  11445.888521 -14927.699679   -517.017745                    
V 32   7592.070688 -17947.322285 -23082.210257     -0.078289                    
EOF
